[{"OBJECT_NAME":"STARLINK-31490","OBJECT_ID":"2024-046X","EPOCH":"2026-03-09T22:29:20.325984","MEAN_MOTION":15.30192098,"ECCENTRICITY":8.027e-5,"INCLINATION":53.158,"RA_OF_ASC_NODE":154.4532,"ARG_OF_PERICENTER":80.9222,"MEAN_ANOMALY":279.1869,"EPHEMERIS_TYPE":0,"CLASSIFICATION_TYPE":"U","NORAD_CAT_ID":59222,"ELEMENT_SET_NO":999,"REV_AT_EPOCH":11307,"BSTAR":9.8074396e-5,"MEAN_MOTION_DOT":2.546e-5,"MEAN_MOTION_DDOT":0},{"OBJECT_NAME":"TEVEL2-2","OBJECT_ID":"2025-052K","EPOCH":"2026-03-09T15:33:48.895776","MEAN_MOTION":15.30343745,"ECCENTRICITY":0.0004693,"INCLINATION":97.3987,"RA_OF_ASC_NODE":324.77,"ARG_OF_PERICENTER":105.793,"MEAN_ANOMALY":254.3828,"EPHEMERIS_TYPE":0,"CLASSIFICATION_TYPE":"U","NORAD_CAT_ID":63219,"ELEMENT_SET_NO":999,"REV_AT_EPOCH":5485,"BSTAR":0.00069428,"MEAN_MOTION_DOT":0.00020339,"MEAN_MOTION_DDOT":0}]
